STARLINK-31584          
1 59862U 24098E   26068.00823539 -.00000815  00000+0 -20108-4 0  9995
2 59862  42.9997 281.7009 0000818 257.1294 102.9466 15.27580285101740
2025-313BC              
1 67298U 25313BC  26068.18968176  .00075331  00000+0  26410-2 0  9997
2 67298  97.3985 144.8110 0008478 328.9209  31.1528 15.29126358  7890
